QZS-1R                  
1 49336U 21096A   24175.67755657 -.00000253  00000+0  00000+0 0  9999
2 49336  35.9569  90.4319 0757168 271.6304 287.9988  1.00256684  9740
